{
  "type": "FeatureCollection",
  "features": [
    {
      "type": "Feature",
      "properties": {
        "norad_id": 37781,
        "name": "HAIYANG-2A",
        "group": "resource",
        "lat": -43.19991184060435,
        "lon": 4.020512192182645,
        "alt_km": 975.1171376650937,
        "timestamp": "2025-12-20T07:33:50.460455+00:00",
        "meta_object_name": "HAIYANG-2A",
        "meta_object_id": "2011-043A",
        "meta_epoch": "2025-12-19T23:04:08.520672",
        "meta_mean_motion": 13.78836015,
        "meta_eccentricity": 0.00016275,
        "meta_inclination": 99.3371,
        "meta_ra_of_asc_node": 354.7845,
        "meta_arg_of_pericenter": 74.0238,
        "meta_mean_anomaly": 286.1093,
        "meta_ephemeris_type": 0,
        "meta_classification_type": "U",
        "meta_norad_cat_id": 37781,
        "meta_element_set_no": 999,
        "meta_rev_at_epoch": 72198,
        "meta_bstar": 7.1226122e-05,
        "meta_mean_motion_dot": 2.8e-07,
        "meta_mean_motion_ddot": 0,
        "tle_line1": "1 37781U 11043A   25353.96120973  .00000028  00000+0  71226-4 0  9991",
        "tle_line2": "2 37781  99.3371 354.7845 0001627  74.0238 286.1093 13.78836015721984"
      },
      "geometry": {
        "type": "Point",
        "coordinates": [
          4.020512192182645,
          -43.19991184060435
        ]
      }
    },
    {
      "type": "Feature",
      "properties": {
        "norad_id": 37791,
        "name": "RASAT",
        "group": "resource",
        "lat": -21.937397235421574,
        "lon": 86.73454231938899,
        "alt_km": 666.3991075004942,
        "timestamp": "2025-12-20T07:33:50.460466+00:00",
        "meta_object_name": "RASAT",
        "meta_object_id": "2011-044D",
        "meta_epoch": "2025-12-19T22:26:05.347104",
        "meta_mean_motion": 14.67919382,
        "meta_eccentricity": 0.00216032,
        "meta_inclination": 98.0651,
        "meta_ra_of_asc_node": 83.086,
        "meta_arg_of_pericenter": 43.2489,
        "meta_mean_anomaly": 85.9874,
        "meta_ephemeris_type": 0,
        "meta_classification_type": "U",
        "meta_norad_cat_id": 37791,
        "meta_element_set_no": 999,
        "meta_rev_at_epoch": 76688,
        "meta_bstar": 0.0001149322,
        "meta_mean_motion_dot": 6.11e-06,
        "meta_mean_motion_ddot": 0,
        "tle_line1": "1 37791U 11044D   25353.93478411  .00000611  00000+0  11493-3 0  9990",
        "tle_line2": "2 37791  98.0651  83.0860 0021603  43.2489  85.9874 14.67919382766881"
      },
      "geometry": {
        "type": "Point",
        "coordinates": [
          86.73454231938899,
          -21.937397235421574
        ]
      }
    },
    {
      "type": "Feature",
      "properties": {
        "norad_id": 37841,
        "name": "SRMSAT",
        "group": "resource",
        "lat": 14.683669602604928,
        "lon": -164.07179360139392,
        "alt_km": 850.5620943192616,
        "timestamp": "2025-12-20T07:33:50.460477+00:00",
        "meta_object_name": "SRMSAT",
        "meta_object_id": "2011-058D",
        "meta_epoch": "2025-12-19T14:40:57.595008",
        "meta_mean_motion": 14.11513672,
        "meta_eccentricity": 0.0011928,
        "meta_inclination": 19.9723,
        "meta_ra_of_asc_node": 66.3596,
        "meta_arg_of_pericenter": 29.0252,
        "meta_mean_anomaly": 120.8933,
        "meta_ephemeris_type": 0,
        "meta_classification_type": "U",
        "meta_norad_cat_id": 37841,
        "meta_element_set_no": 999,
        "meta_rev_at_epoch": 73241,
        "meta_bstar": 6.4258e-05,
        "meta_mean_motion_dot": 3.83e-06,
        "meta_mean_motion_ddot": 0,
        "tle_line1": "1 37841U 11058D   25353.61177772  .00000383  00000+0  64258-4 0  9996",
        "tle_line2": "2 37841  19.9723  66.3596 0011928  29.0252 120.8933 14.11513672732416"
      },
      "geometry": {
        "type": "Point",
        "coordinates": [
          -164.07179360139392,
          14.683669602604928
        ]
      }
    },
    {
      "type": "Feature",
      "properties": {
        "norad_id": 38012,
        "name": "PLEIADES 1A",
        "group": "resource",
        "lat": -57.85867783472201,
        "lon": -126.27092940414147,
        "alt_km": 705.702695742184,
        "timestamp": "2025-12-20T07:33:50.460488+00:00",
        "meta_object_name": "PLEIADES 1A",
        "meta_object_id": "2011-076F",
        "meta_epoch": "2025-12-19T23:01:51.427200",
        "meta_mean_motion": 14.58567134,
        "meta_eccentricity": 0.0001171,
        "meta_inclination": 98.1822,
        "meta_ra_of_asc_node": 66.6171,
        "meta_arg_of_pericenter": 73.5048,
        "meta_mean_anomaly": 99.4341,
        "meta_ephemeris_type": 0,
        "meta_classification_type": "U",
        "meta_norad_cat_id": 38012,
        "meta_element_set_no": 999,
        "meta_rev_at_epoch": 74586,
        "meta_bstar": 4.6488893e-05,
        "meta_mean_motion_dot": 1.71e-06,
        "meta_mean_motion_ddot": 0,
        "tle_line1": "1 38012U 11076F   25353.95962300  .00000171  00000+0  46489-4 0  9994",
        "tle_line2": "2 38012  98.1822  66.6171 0001171  73.5048  99.4341 14.58567134745864"
      },
      "geometry": {
        "type": "Point",
        "coordinates": [
          -126.27092940414147,
          -57.85867783472201
        ]
      }
    },
    {
      "type": "Feature",
      "properties": {
        "norad_id": 38038,
        "name": "ZIYUAN 1-02C (ZY 1-02C)",
        "group": "resource",
        "lat": -52.20905225764116,
        "lon": 71.2193333600079,
        "alt_km": 777.2360750891849,
        "timestamp": "2025-12-20T07:33:50.460499+00:00",
        "meta_object_name": "ZIYUAN 1-02C (ZY 1-02C)",
        "meta_object_id": "2011-079A",
        "meta_epoch": "2025-12-19T22:35:35.498112",
        "meta_mean_motion": 14.38019068,
        "meta_eccentricity": 0.00074288,
        "meta_inclination": 98.4332,
        "meta_ra_of_asc_node": 59.8226,
        "meta_arg_of_pericenter": 119.442,
        "meta_mean_anomaly": 53.7083,
        "meta_ephemeris_type": 0,
        "meta_classification_type": "U",
        "meta_norad_cat_id": 38038,
        "meta_element_set_no": 999,
        "meta_rev_at_epoch": 73344,
        "meta_bstar": 8.5034878e-05,
        "meta_mean_motion_dot": 2.14e-06,
        "meta_mean_motion_ddot": 0,
        "tle_line1": "1 38038U 11079A   25353.94138308  .00000214  00000+0  85035-4 0  9995",
        "tle_line2": "2 38038  98.4332  59.8226 0007428 119.4420  53.7083 14.38019068733444"
      },
      "geometry": {
        "type": "Point",
        "coordinates": [
          71.2193333600079,
          -52.20905225764116
        ]
      }
    },
    {
      "type": "Feature",
      "properties": {
        "norad_id": 38338,
        "name": "ARIRANG-3 (KOMPSAT-3)",
        "group": "resource",
        "lat": -41.61063277712648,
        "lon": 121.48168304319769,
        "alt_km": 694.2326668047299,
        "timestamp": "2025-12-20T07:33:50.460510+00:00",
        "meta_object_name": "ARIRANG-3 (KOMPSAT-3)",
        "meta_object_id": "2012-025B",
        "meta_epoch": "2025-12-19T22:20:10.953312",
        "meta_mean_motion": 14.61721435,
        "meta_eccentricity": 0.00049203,
        "meta_inclination": 98.3333,
        "meta_ra_of_asc_node": 308.5745,
        "meta_arg_of_pericenter": 313.8086,
        "meta_mean_anomaly": 46.2707,
        "meta_ephemeris_type": 0,
        "meta_classification_type": "U",
        "meta_norad_cat_id": 38338,
        "meta_element_set_no": 999,
        "meta_rev_at_epoch": 72515,
        "meta_bstar": 8.7336418e-05,
        "meta_mean_motion_dot": 3.87e-06,
        "meta_mean_motion_ddot": 0,
        "tle_line1": "1 38338U 12025B   25353.93068233  .00000387  00000+0  87336-4 0  9995",
        "tle_line2": "2 38338  98.3333 308.5745 0004920 313.8086  46.2707 14.61721435725152"
      },
      "geometry": {
        "type": "Point",
        "coordinates": [
          121.48168304319769,
          -41.61063277712648
        ]
      }
    },
    {
      "type": "Feature",
      "properties": {
        "norad_id": 38709,
        "name": "EXACTVIEW-1 (ADS-1B)",
        "group": "resource",
        "lat": -60.961830235327646,
        "lon": 119.38126583888582,
        "alt_km": 809.7670344579901,
        "timestamp": "2025-12-20T07:33:50.460520+00:00",
        "meta_object_name": "EXACTVIEW-1 (ADS-1B)",
        "meta_object_id": "2012-039C",
        "meta_epoch": "2025-12-19T21:44:37.095360",
        "meta_mean_motion": 14.24910684,
        "meta_eccentricity": 0.00103128,
        "meta_inclination": 98.9639,
        "meta_ra_of_asc_node": 102.4464,
        "meta_arg_of_pericenter": 333.0282,
        "meta_mean_anomaly": 27.036,
        "meta_ephemeris_type": 0,
        "meta_classification_type": "U",
        "meta_norad_cat_id": 38709,
        "meta_element_set_no": 999,
        "meta_rev_at_epoch": 69717,
        "meta_bstar": 6.0667149e-05,
        "meta_mean_motion_dot": 9.5e-07,
        "meta_mean_motion_ddot": 0,
        "tle_line1": "1 38709U 12039C   25353.90598490  .00000095  00000+0  60667-4 0  9996",
        "tle_line2": "2 38709  98.9639 102.4464 0010312 333.0282  27.0360 14.24910684697179"
      },
      "geometry": {
        "type": "Point",
        "coordinates": [
          119.38126583888582,
          -60.961830235327646
        ]
      }
    }
  ]
}